ONEWEB-0446             
1 51640U 22012U   24343.51718430  .00000438  00000+0  12182-2 0  9998
2 51640  87.8893 146.9515 0001417 103.6779 256.4506 13.10376276136552
ONEWEB-0448             
1 51641U 22012V   24343.75124413  .00000949  00000+0  26817-2 0  9994
2 51641  87.8891 146.9055 0001525  86.4413 273.6888 13.10392455137847
ONEWEB-0449             
1 51642U 22012W   24343.52714937  .00000689  00000+0  19375-2 0  9998
2 51642  87.8886 146.9352 0001769  94.8283 265.3046 13.10373833136538
ONEWEB-0451             
1 51643U 22012X   24343.73576817  .00000049  00000+0  93728-4 0  9991
2 51643  87.9086 116.4984 0001564  97.4890 262.6419 13.17649992141811
ONEWEB-0452             
1 51644U 22012Y   24343.43033815  .00000210  00000+0  50877-3 0  9992
2 51644  87.9092 116.6097 0001899  93.8338 266.3011 13.17649566140482
ONEWEB-0456             
1 51646U 22012AA  24343.68982000  .00000537  00000+0  15028-2 0  9990
2 51646  87.8880 146.8688 0001314  90.1616 269.9661 13.10370850137880
ONEWEB-0457             
1 51647U 22012AB  24343.51386024  .00000314  00000+0  86225-3 0  9998
2 51647  87.8893 146.9416 0001785 100.7725 259.3603 13.10380555136573
ONEWEB-0458             
1 51648U 22012AC  24343.53544527  .00000574  00000+0  16067-2 0  9999
2 51648  87.8872 146.9473 0001525  88.2982 271.8320 13.10372808136534
